IDEFIX & ARIANE 42P R/B 
1 27422U 02021B   25343.78629940  .00000591  00000+0  24143-3 0  9995
2 27422  98.5781 278.5155 0012933  91.5492 268.7172 14.30947266231166
AQUA                    
1 27424U 02022A   25343.87653161  .00001927  00000+0  39590-3 0  9996
2 27424  98.4034 304.7091 0000979 114.1879 272.7648 14.61799118255611
CZ-4B R/B               
1 27432U 02024C   25343.38176988  .00000139  00000+0  94924-4 0  9997
2 27432  98.9001  32.1650 0049165 279.6367  90.4859 14.14526983216477
MIDORI II (ADEOS-II)    
1 27597U 02056A   25343.77504455  .00000525  00000+0  22465-3 0  9990
2 27597  98.7631 296.7158 0000040  80.5914 279.5272 14.29202884197455
H-2A R/B                
1 27601U 02056E   25343.81193096  .00000642  00000+0  23925-3 0  9998
2 27601  98.3061 302.6852 0071441  69.7242 313.7706 14.33672685201238
CZ-4B R/B               
1 28059U 03049C   25343.43205419  .00000730  00000+0  17889-3 0  9990
2 28059  98.6786 329.8711 0048839 146.0149 214.4192 14.54905026173479
CZ-2C R/B               
1 28222U 04012C   25343.84440469  .00048747  00000+0  71545-3 0  9993
2 28222  97.7424  36.2264 0016647 281.8766  78.0620 15.55214388190270
SL-16 R/B               
1 28353U 04021B   25343.65155564 -.00000171  00000+0 -64394-4 0  9992
2 28353  71.0021  61.4459 0005464 205.0720 155.0138 14.14581661110101
CZ-4B R/B               
1 28415U 04035C   25343.80971720  .00011935  00000+0  44242-3 0  9990
2 28415  97.3611  14.1926 0031684 288.4623  71.3173 15.27293617166184
CZ-2C R/B               
1 28480U 04046B   25343.52309101  .00000345  00000+0  14275-3 0  9997
2 28480  98.1988 259.1009 0140602  61.7461 299.7831 14.26938329 95641
ARIANE 5 R/B            
1 28499U 04049H   25343.41829927  .00001941  00000+0  22108-3 0  9998
2 28499  98.2521 143.5805 0083394 283.8975  75.2972 14.85000547132390
