CCSDS_OMM_VERS = 2.0
CREATION_DATE  = 
ORIGINATOR     = 

OBJECT_NAME    = IDEFIX & ARIANE 42P R/B
OBJECT_ID      = 2002-021B
CENTER_NAME    = EARTH
REF_FRAME      = TEME
TIME_SYSTEM    = UTC
MEAN_ELEMENT_THEORY = SGP/SGP4

EPOCH          = 2025-12-09T18:52:16.268160
MEAN_MOTION    = 14.30947266
ECCENTRICITY   = .0012933
INCLINATION    = 98.5781
RA_OF_ASC_NODE = 278.5155
ARG_OF_PERICENTER = 91.5492
MEAN_ANOMALY   = 268.7172

EPHEMERIS_TYPE = 0
CLASSIFICATION_TYPE = U
NORAD_CAT_ID   = 27422
ELEMENT_SET_NO = 999
REV_AT_EPOCH   = 23116
BSTAR          = .24143E-3
MEAN_MOTION_DOT = .591E-5
MEAN_MOTION_DDOT = 0

CCSDS_OMM_VERS = 2.0
CREATION_DATE  = 
ORIGINATOR     = 

OBJECT_NAME    = AQUA
OBJECT_ID      = 2002-022A
CENTER_NAME    = EARTH
REF_FRAME      = TEME
TIME_SYSTEM    = UTC
MEAN_ELEMENT_THEORY = SGP/SGP4

EPOCH          = 2025-12-09T21:02:12.331104
MEAN_MOTION    = 14.61799118
ECCENTRICITY   = .0000979
INCLINATION    = 98.4034
RA_OF_ASC_NODE = 304.7091
ARG_OF_PERICENTER = 114.1879
MEAN_ANOMALY   = 272.7648

EPHEMERIS_TYPE = 0
CLASSIFICATION_TYPE = U
NORAD_CAT_ID   = 27424
ELEMENT_SET_NO = 999
REV_AT_EPOCH   = 25561
BSTAR          = .3959E-3
MEAN_MOTION_DOT = .1927E-4
MEAN_MOTION_DDOT = 0

CCSDS_OMM_VERS = 2.0
CREATION_DATE  = 
ORIGINATOR     = 

OBJECT_NAME    = CZ-4B R/B
OBJECT_ID      = 2002-024C
CENTER_NAME    = EARTH
REF_FRAME      = TEME
TIME_SYSTEM    = UTC
MEAN_ELEMENT_THEORY = SGP/SGP4

EPOCH          = 2025-12-09T09:09:44.917632
MEAN_MOTION    = 14.14526983
ECCENTRICITY   = .00491653
INCLINATION    = 98.9001
RA_OF_ASC_NODE = 32.1650
ARG_OF_PERICENTER = 279.6367
MEAN_ANOMALY   = 90.4859

EPHEMERIS_TYPE = 0
CLASSIFICATION_TYPE = U
NORAD_CAT_ID   = 27432
ELEMENT_SET_NO = 999
REV_AT_EPOCH   = 21647
BSTAR          = .94924247E-4
MEAN_MOTION_DOT = .139E-5
MEAN_MOTION_DDOT = 0

CCSDS_OMM_VERS = 2.0
CREATION_DATE  = 
ORIGINATOR     = 

OBJECT_NAME    = MIDORI II (ADEOS-II)
OBJECT_ID      = 2002-056A
CENTER_NAME    = EARTH
REF_FRAME      = TEME
TIME_SYSTEM    = UTC
MEAN_ELEMENT_THEORY = SGP/SGP4

EPOCH          = 2025-12-09T18:36:03.849120
MEAN_MOTION    = 14.29202884
ECCENTRICITY   = .000004
INCLINATION    = 98.7631
RA_OF_ASC_NODE = 296.7158
ARG_OF_PERICENTER = 80.5914
MEAN_ANOMALY   = 279.5272

EPHEMERIS_TYPE = 0
CLASSIFICATION_TYPE = U
NORAD_CAT_ID   = 27597
ELEMENT_SET_NO = 999
REV_AT_EPOCH   = 19745
BSTAR          = .22465E-3
MEAN_MOTION_DOT = .525E-5
MEAN_MOTION_DDOT = 0

CCSDS_OMM_VERS = 2.0
CREATION_DATE  = 
ORIGINATOR     = 

OBJECT_NAME    = H-2A R/B
OBJECT_ID      = 2002-056E
CENTER_NAME    = EARTH
REF_FRAME      = TEME
TIME_SYSTEM    = UTC
MEAN_ELEMENT_THEORY = SGP/SGP4

EPOCH          = 2025-12-09T19:29:10.834944
MEAN_MOTION    = 14.33672685
ECCENTRICITY   = .0071441
INCLINATION    = 98.3061
RA_OF_ASC_NODE = 302.6852
ARG_OF_PERICENTER = 69.7242
MEAN_ANOMALY   = 313.7706

EPHEMERIS_TYPE = 0
CLASSIFICATION_TYPE = U
NORAD_CAT_ID   = 27601
ELEMENT_SET_NO = 999
REV_AT_EPOCH   = 20123
BSTAR          = .23925E-3
MEAN_MOTION_DOT = .642E-5
MEAN_MOTION_DDOT = 0

CCSDS_OMM_VERS = 2.0
CREATION_DATE  = 
ORIGINATOR     = 

OBJECT_NAME    = CZ-4B R/B
OBJECT_ID      = 2003-049C
CENTER_NAME    = EARTH
REF_FRAME      = TEME
TIME_SYSTEM    = UTC
MEAN_ELEMENT_THEORY = SGP/SGP4

EPOCH          = 2025-12-09T10:22:09.482016
MEAN_MOTION    = 14.54905026
ECCENTRICITY   = .00488392
INCLINATION    = 98.6786
RA_OF_ASC_NODE = 329.8711
ARG_OF_PERICENTER = 146.0149
MEAN_ANOMALY   = 214.4192

EPHEMERIS_TYPE = 0
CLASSIFICATION_TYPE = U
NORAD_CAT_ID   = 28059
ELEMENT_SET_NO = 999
REV_AT_EPOCH   = 17347
BSTAR          = .17889283E-3
MEAN_MOTION_DOT = .73E-5
MEAN_MOTION_DDOT = 0

CCSDS_OMM_VERS = 2.0
CREATION_DATE  = 
ORIGINATOR     = 

OBJECT_NAME    = CZ-2C R/B
OBJECT_ID      = 2004-012C
CENTER_NAME    = EARTH
REF_FRAME      = TEME
TIME_SYSTEM    = UTC
MEAN_ELEMENT_THEORY = SGP/SGP4

EPOCH          = 2025-12-09T20:15:56.565216
MEAN_MOTION    = 15.55214388
ECCENTRICITY   = .0016647
INCLINATION    = 97.7424
RA_OF_ASC_NODE = 36.2264
ARG_OF_PERICENTER = 281.8766
MEAN_ANOMALY   = 78.0620

EPHEMERIS_TYPE = 0
CLASSIFICATION_TYPE = U
NORAD_CAT_ID   = 28222
ELEMENT_SET_NO = 999
REV_AT_EPOCH   = 19027
BSTAR          = .71545E-3
MEAN_MOTION_DOT = .48747E-3
MEAN_MOTION_DDOT = 0

CCSDS_OMM_VERS = 2.0
CREATION_DATE  = 
ORIGINATOR     = 

OBJECT_NAME    = SL-16 R/B
OBJECT_ID      = 2004-021B
CENTER_NAME    = EARTH
REF_FRAME      = TEME
TIME_SYSTEM    = UTC
MEAN_ELEMENT_THEORY = SGP/SGP4

EPOCH          = 2025-12-09T15:38:14.407296
MEAN_MOTION    = 14.14581661
ECCENTRICITY   = .0005464
INCLINATION    = 71.0021
RA_OF_ASC_NODE = 61.4459
ARG_OF_PERICENTER = 205.0720
MEAN_ANOMALY   = 155.0138

EPHEMERIS_TYPE = 0
CLASSIFICATION_TYPE = U
NORAD_CAT_ID   = 28353
ELEMENT_SET_NO = 999
REV_AT_EPOCH   = 11010
BSTAR          = -.64394E-4
MEAN_MOTION_DOT = -.171E-5
MEAN_MOTION_DDOT = 0

CCSDS_OMM_VERS = 2.0
CREATION_DATE  = 
ORIGINATOR     = 

OBJECT_NAME    = CZ-4B R/B
OBJECT_ID      = 2004-035C
CENTER_NAME    = EARTH
REF_FRAME      = TEME
TIME_SYSTEM    = UTC
MEAN_ELEMENT_THEORY = SGP/SGP4

EPOCH          = 2025-12-09T19:25:59.566080
MEAN_MOTION    = 15.27293617
ECCENTRICITY   = .0031684
INCLINATION    = 97.3611
RA_OF_ASC_NODE = 14.1926
ARG_OF_PERICENTER = 288.4623
MEAN_ANOMALY   = 71.3173

EPHEMERIS_TYPE = 0
CLASSIFICATION_TYPE = U
NORAD_CAT_ID   = 28415
ELEMENT_SET_NO = 999
REV_AT_EPOCH   = 16618
BSTAR          = .44242E-3
MEAN_MOTION_DOT = .11935E-3
MEAN_MOTION_DDOT = 0

CCSDS_OMM_VERS = 2.0
CREATION_DATE  = 
ORIGINATOR     = 

OBJECT_NAME    = CZ-2C R/B
OBJECT_ID      = 2004-046B
CENTER_NAME    = EARTH
REF_FRAME      = TEME
TIME_SYSTEM    = UTC
MEAN_ELEMENT_THEORY = SGP/SGP4

EPOCH          = 2025-12-09T12:33:15.063264
MEAN_MOTION    = 14.26938329
ECCENTRICITY   = .0140602
INCLINATION    = 98.1988
RA_OF_ASC_NODE = 259.1009
ARG_OF_PERICENTER = 61.7461
MEAN_ANOMALY   = 299.7831

EPHEMERIS_TYPE = 0
CLASSIFICATION_TYPE = U
NORAD_CAT_ID   = 28480
ELEMENT_SET_NO = 999
REV_AT_EPOCH   = 9564
BSTAR          = .14275E-3
MEAN_MOTION_DOT = .345E-5
MEAN_MOTION_DDOT = 0

CCSDS_OMM_VERS = 2.0
CREATION_DATE  = 
ORIGINATOR     = 

OBJECT_NAME    = ARIANE 5 R/B
OBJECT_ID      = 2004-049H
CENTER_NAME    = EARTH
REF_FRAME      = TEME
TIME_SYSTEM    = UTC
MEAN_ELEMENT_THEORY = SGP/SGP4

EPOCH          = 2025-12-09T10:02:21.056928
MEAN_MOTION    = 14.85000547
ECCENTRICITY   = .00833943
INCLINATION    = 98.2521
RA_OF_ASC_NODE = 143.5805
ARG_OF_PERICENTER = 283.8975
MEAN_ANOMALY   = 75.2972

EPHEMERIS_TYPE = 0
CLASSIFICATION_TYPE = U
NORAD_CAT_ID   = 28499
ELEMENT_SET_NO = 999
REV_AT_EPOCH   = 13239
BSTAR          = .22107728E-3
MEAN_MOTION_DOT = .1941E-4
MEAN_MOTION_DDOT = 0

